GLOBALSTAR M063         
1 26081U 00008A   24189.59767130 -.00000032  00000+0  73571-3 0  9998
2 26081  51.9965 299.0886 0004270  20.9216  80.1513 11.86157068116682
GLOBALSTAR M060         
1 26083U 00008C   24189.54803355 -.00000053  00000+0  37497-3 0  9995
2 26083  52.0035 300.4936 0003994 144.4348 299.9940 12.17635732110386
GLOBALSTAR M065         
1 31571U 07020A   24189.38934172 -.00000083  00000+0  11637-3 0  9999
2 31571  51.9863 195.6919 0009836 264.0132 188.1528 12.61973490789879
GLOBALSTAR M069         
1 31573U 07020C   24189.39556024 -.00000112  00000+0 -44591-4 0  9998
2 31573  51.9933 151.4719 0000657 335.7479 192.7253 12.62276560791008
GLOBALSTAR M072         
1 31574U 07020D   24189.54388737 -.00000064  00000+0  22347-3 0  9999
2 31574  52.0070 246.9802 0000565 202.0711 299.0903 12.62259538789296
GLOBALSTAR M071         
1 31576U 07020F   24189.33833213 -.00000115  00000+0 -61702-4 0  9999
2 31576  52.0046 156.8298 0000570  22.4165 124.2496 12.62269270452187
